{"type": "FeatureCollection", "features": [ {"type": "Feature", "properties": {"norad_id": 34304, "name": "COSMOS 2251 DEB", "group": "cosmos-2251-debris", "lat": 31.595991460656272, "lon": 104.72068064026985, "alt_km": 851.2898886875564, "timestamp": "2025-12-27T22:26:48.994540+00:00", "meta": {"OBJECT_NAME": "COSMOS 2251 DEB", "OBJECT_ID": "1993-036NA", "EPOCH": "2025-12-26T16:48:12.002688", "MEAN_MOTION": 14.37997771, "ECCENTRICITY": 0.01289226, "INCLINATION": 74.0136, "RA_OF_ASC_NODE": 96.8421, "ARG_OF_PERICENTER": 231.8358, "MEAN_ANOMALY": 249.2914, "EPHEMERIS_TYPE": 0, "CLASSIFICATION_TYPE": "U", "NORAD_CAT_ID": 34304, "ELEMENT_SET_NO": 999, "REV_AT_EPOCH": 87497, "BSTAR": 0.0017543982, "MEAN_MOTION_DOT": 5.819e-05, "MEAN_MOTION_DDOT": 0}, "tle": {"line1": "1 34304U 93036NA  25360.70013892  .00005819  00000+0  17544-2 0  9996", "line2": "2 34304  74.0136  96.8421 0128922 231.8358 249.2914 14.37997771874972"}}, "geometry": {"type": "Point", "coordinates": [104.72068064026985, 31.595991460656272]}}, {"type": "Feature", "properties": {"norad_id": 34307, "name": "COSMOS 2251 DEB", "group": "cosmos-2251-debris", "lat": -14.4327924247928, "lon": -75.48625876980913, "alt_km": 1245.8946368419493, "timestamp": "2025-12-27T22:26:48.994550+00:00", "meta": {"OBJECT_NAME": "COSMOS 2251 DEB", "OBJECT_ID": "1993-036ND", "EPOCH": "2025-12-27T05:21:34.460064", "MEAN_MOTION": 13.54344682, "ECCENTRICITY": 0.0391732, "INCLINATION": 74.0541, "RA_OF_ASC_NODE": 289.8754, "ARG_OF_PERICENTER": 117.6177, "MEAN_ANOMALY": 0.875, "EPHEMERIS_TYPE": 0, "CLASSIFICATION_TYPE": "U", "NORAD_CAT_ID": 34307, "ELEMENT_SET_NO": 999, "REV_AT_EPOCH": 83058, "BSTAR": 0.0008404, "MEAN_MOTION_DOT": 9.16e-06, "MEAN_MOTION_DDOT": 0}, "tle": {"line1": "1 34307U 93036ND  25361.22331551  .00000916  00000+0  84040-3 0  9991", "line2": "2 34307  74.0541 289.8754 0391732 117.6177   0.8750 13.54344682830582"}}, "geometry": {"type": "Point", "coordinates": [-75.48625876980913, -14.4327924247928]}}, {"type": "Feature", "properties": {"norad_id": 34313, "name": "COSMOS 2251 DEB", "group": "cosmos-2251-debris", "lat": -31.759065802396716, "lon": 103.74751526262938, "alt_km": 513.3461183275285, "timestamp": "2025-12-27T22:26:48.994560+00:00", "meta": {"OBJECT_NAME": "COSMOS 2251 DEB", "OBJECT_ID": "1993-036NK", "EPOCH": "2025-12-27T04:09:34.667424", "MEAN_MOTION": 15.21766557, "ECCENTRICITY": 0.00122091, "INCLINATION": 73.9711, "RA_OF_ASC_NODE": 275.1034, "ARG_OF_PERICENTER": 59.5098, "MEAN_ANOMALY": 300.7304, "EPHEMERIS_TYPE": 0, "CLASSIFICATION_TYPE": "U", "NORAD_CAT_ID": 34313, "ELEMENT_SET_NO": 999, "REV_AT_EPOCH": 89284, "BSTAR": 0.0053535033, "MEAN_MOTION_DOT": 0.0012372, "MEAN_MOTION_DDOT": 0}, "tle": {"line1": "1 34313U 93036NK  25361.17331791  .00123720  00000+0  53535-2 0  9991", "line2": "2 34313  73.9711 275.1034 0012209  59.5098 300.7304 15.21766557892849"}}, "geometry": {"type": "Point", "coordinates": [103.74751526262938, -31.759065802396716]}}, {"type": "Feature", "properties": {"norad_id": 34314, "name": "COSMOS 2251 DEB", "group": "cosmos-2251-debris", "lat": 6.213743935527419, "lon": -76.94421462041657, "alt_km": 764.0613768684598, "timestamp": "2025-12-27T22:26:48.994570+00:00", "meta": {"OBJECT_NAME": "COSMOS 2251 DEB", "OBJECT_ID": "1993-036NL", "EPOCH": "2025-12-27T06:14:36.273120", "MEAN_MOTION": 14.17461679, "ECCENTRICITY": 0.0103626, "INCLINATION": 74.0061, "RA_OF_ASC_NODE": 282.4707, "ARG_OF_PERICENTER": 24.7281, "MEAN_ANOMALY": 138.364, "EPHEMERIS_TYPE": 0, "CLASSIFICATION_TYPE": "U", "NORAD_CAT_ID": 34314, "ELEMENT_SET_NO": 999, "REV_AT_EPOCH": 86863, "BSTAR": 0.00062467, "MEAN_MOTION_DOT": 1.31e-05, "MEAN_MOTION_DDOT": 0}, "tle": {"line1": "1 34314U 93036NL  25361.26014205  .00001310  00000+0  62467-3 0  9995", "line2": "2 34314  74.0061 282.4707 0103626  24.7281 138.3640 14.17461679868639"}}, "geometry": {"type": "Point", "coordinates": [-76.94421462041657, 6.213743935527419]}}, {"type": "Feature", "properties": {"norad_id": 34316, "name": "COSMOS 2251 DEB", "group": "cosmos-2251-debris", "lat": -41.56734210733855, "lon": -68.23810895723894, "alt_km": 594.7523449326882, "timestamp": "2025-12-27T22:26:48.994580+00:00", "meta": {"OBJECT_NAME": "COSMOS 2251 DEB", "OBJECT_ID": "1993-036NN", "EPOCH": "2025-12-27T03:20:06.137088", "MEAN_MOTION": 14.92314691, "ECCENTRICITY": 0.00092359, "INCLINATION": 74.0652, "RA_OF_ASC_NODE": 308.0347, "ARG_OF_PERICENTER": 29.2935, "MEAN_ANOMALY": 330.8763, "EPHEMERIS_TYPE": 0, "CLASSIFICATION_TYPE": "U", "NORAD_CAT_ID": 34316, "ELEMENT_SET_NO": 999, "REV_AT_EPOCH": 89424, "BSTAR": 0.0024156886, "MEAN_MOTION_DOT": 0.00024759, "MEAN_MOTION_DDOT": 0}, "tle": {"line1": "1 34316U 93036NN  25361.13895992  .00024759  00000+0  24157-2 0  9998", "line2": "2 34316  74.0652 308.0347 0009235  29.2935 330.8763 14.92314691894244"}}, "geometry": {"type": "Point", "coordinates": [-68.23810895723894, -41.56734210733855]}}, {"type": "Feature", "properties": {"norad_id": 34317, "name": "COSMOS 2251 DEB", "group": "cosmos-2251-debris", "lat": -35.34974777780623, "lon": -1.061011861731962, "alt_km": 813.7149120514478, "timestamp": "2025-12-27T22:26:48.994590+00:00", "meta": {"OBJECT_NAME": "COSMOS 2251 DEB", "OBJECT_ID": "1993-036NP", "EPOCH": "2025-12-27T01:48:08.563104", "MEAN_MOTION": 13.65142089, "ECCENTRICITY": 0.03370463, "INCLINATION": 73.9242, "RA_OF_ASC_NODE": 12.1572, "ARG_OF_PERICENTER": 358.6629, "MEAN_ANOMALY": 60.6871, "EPHEMERIS_TYPE": 0, "CLASSIFICATION_TYPE": "U", "NORAD_CAT_ID": 34317, "ELEMENT_SET_NO": 999, "REV_AT_EPOCH": 83815, "BSTAR": 0.00080027012, "MEAN_MOTION_DOT": 9.33e-06, "MEAN_MOTION_DDOT": 0}, "tle": {"line1": "1 34317U 93036NP  25361.07509911  .00000933  00000+0  80027-3 0  9992", "line2": "2 34317  73.9242  12.1572 0337046 358.6629  60.6871 13.65142089838159"}}, "geometry": {"type": "Point", "coordinates": [-1.061011861731962, -35.34974777780623]}}, {"type": "Feature", "properties": {"norad_id": 34321, "name": "COSMOS 2251 DEB", "group": "cosmos-2251-debris", "lat": -27.07057835624256, "lon": 119.39549764214499, "alt_km": 727.7356294431984, "timestamp": "2025-12-27T22:26:48.994600+00:00", "meta": {"OBJECT_NAME": "COSMOS 2251 DEB", "OBJECT_ID": "1993-036NT", "EPOCH": "2025-12-27T11:17:02.249088", "MEAN_MOTION": 14.50121818, "ECCENTRICITY": 0.0016039, "INCLINATION": 74.0289, "RA_OF_ASC_NODE": 128.6855, "ARG_OF_PERICENTER": 257.4882, "MEAN_ANOMALY": 167.0205, "EPHEMERIS_TYPE": 0, "CLASSIFICATION_TYPE": "U", "NORAD_CAT_ID": 34321, "ELEMENT_SET_NO": 999, "REV_AT_EPOCH": 88700, "BSTAR": 0.000715, "MEAN_MOTION_DOT": 2.754e-05, "MEAN_MOTION_DDOT": 0}, "tle": {"line1": "1 34321U 93036NT  25361.47016492  .00002754  00000+0  71500-3 0  9997", "line2": "2 34321  74.0289 128.6855 0016039 257.4882 167.0205 14.50121818887000"}}, "geometry": {"type": "Point", "coordinates": [119.39549764214499, -27.07057835624256]}}, {"type": "Feature", "properties": {"norad_id": 34323, "name": "COSMOS 2251 DEB", "group": "cosmos-2251-debris", "lat": -65.17535128641077, "lon": -48.23752489645685, "alt_km": 670.5363818632259, "timestamp": "2025-12-27T22:26:48.994610+00:00", "meta": {"OBJECT_NAME": "COSMOS 2251 DEB", "OBJECT_ID": "1993-036NV", "EPOCH": "2025-12-27T08:37:41.955168", "MEAN_MOTION": 14.74876094, "ECCENTRICITY": 0.0056921, "INCLINATION": 73.9525, "RA_OF_ASC_NODE": 94.4136, "ARG_OF_PERICENTER": 134.6893, "MEAN_ANOMALY": 299.6337, "EPHEMERIS_TYPE": 0, "CLASSIFICATION_TYPE": "U", "NORAD_CAT_ID": 34323, "ELEMENT_SET_NO": 999, "REV_AT_EPOCH": 88655, "BSTAR": 0.0023707, "MEAN_MOTION_DOT": 0.00016331, "MEAN_MOTION_DDOT": 0}, "tle": {"line1": "1 34323U 93036NV  25361.35951337  .00016331  00000+0  23707-2 0  9993", "line2": "2 34323  73.9525  94.4136 0056921 134.6893 299.6337 14.74876094886553"}}, "geometry": {"type": "Point", "coordinates": [-48.23752489645685, -65.17535128641077]}}, {"type": "Feature", "properties": {"norad_id": 34325, "name": "COSMOS 2251 DEB", "group": "cosmos-2251-debris", "lat": -50.697088858246445, "lon": 6.7330539133277165, "alt_km": 799.4128525082069, "timestamp": "2025-12-27T22:26:48.994620+00:00", "meta": {"OBJECT_NAME": "COSMOS 2251 DEB", "OBJECT_ID": "1993-036NX", "EPOCH": "2025-12-26T22:08:23.930016", "MEAN_MOTION": 14.04568575, "ECCENTRICITY": 0.0191234, "INCLINATION": 73.8709, "RA_OF_ASC_NODE": 167.8156, "ARG_OF_PERICENTER": 182.5258, "MEAN_ANOMALY": 330.1691, "EPHEMERIS_TYPE": 0, "CLASSIFICATION_TYPE": "U", "NORAD_CAT_ID": 34325, "ELEMENT_SET_NO": 999, "REV_AT_EPOCH": 85714, "BSTAR": 0.0024998, "MEAN_MOTION_DOT": 4.678e-05, "MEAN_MOTION_DDOT": 0}, "tle": {"line1": "1 34325U 93036NX  25360.92249919  .00004678  00000+0  24998-2 0  9997", "line2": "2 34325  73.8709 167.8156 0191234 182.5258 330.1691 14.04568575857141"}}, "geometry": {"type": "Point", "coordinates": [6.7330539133277165, -50.697088858246445]}}, {"type": "Feature", "properties": {"norad_id": 34327, "name": "COSMOS 2251 DEB", "group": "cosmos-2251-debris", "lat": 3.047922956245778, "lon": 142.30842573669022, "alt_km": 585.8533601978179, "timestamp": "2025-12-27T22:26:48.994630+00:00", "meta": {"OBJECT_NAME": "COSMOS 2251 DEB", "OBJECT_ID": "1993-036NZ", "EPOCH": "2025-12-27T09:49:48.156096", "MEAN_MOTION": 14.89526599, "ECCENTRICITY": 0.00339, "INCLINATION": 73.9937, "RA_OF_ASC_NODE": 142.486, "ARG_OF_PERICENTER": 316.1631, "MEAN_ANOMALY": 109.0263, "EPHEMERIS_TYPE": 0, "CLASSIFICATION_TYPE": "U", "NORAD_CAT_ID": 34327, "ELEMENT_SET_NO": 999, "REV_AT_EPOCH": 89726, "BSTAR": 0.0015743, "MEAN_MOTION_DOT": 0.00015164, "MEAN_MOTION_DDOT": 0}, "tle": {"line1": "1 34327U 93036NZ  25361.40958514  .00015164  00000+0  15743-2 0  9991", "line2": "2 34327  73.9937 142.4860 0033900 316.1631 109.0263 14.89526599897261"}}, "geometry": {"type": "Point", "coordinates": [142.30842573669022, 3.047922956245778]}}]}